[{"OBJECT_NAME":"HORS 2","OBJECT_ID":"2023-091AG","EPOCH":"2026-03-09T22:11:34.810944","MEAN_MOTION":15.2928008,"ECCENTRICITY":0.00098173,"INCLINATION":97.5195,"RA_OF_ASC_NODE":134.7443,"ARG_OF_PERICENTER":79.3164,"MEAN_ANOMALY":280.9181,"EPHEMERIS_TYPE":0,"CLASSIFICATION_TYPE":"U","NORAD_CAT_ID":57196,"ELEMENT_SET_NO":999,"REV_AT_EPOCH":14934,"BSTAR":0.00059338338,"MEAN_MOTION_DOT":0.00016821,"MEAN_MOTION_DDOT":0},{"OBJECT_NAME":"STARLINK-31388","OBJECT_ID":"2024-076B","EPOCH":"2026-03-09T04:32:35.635776","MEAN_MOTION":15.2758107,"ECCENTRICITY":8.192e-5,"INCLINATION":43.0037,"RA_OF_ASC_NODE":12.0667,"ARG_OF_PERICENTER":304.7804,"MEAN_ANOMALY":55.2971,"EPHEMERIS_TYPE":0,"CLASSIFICATION_TYPE":"U","NORAD_CAT_ID":59565,"ELEMENT_SET_NO":999,"REV_AT_EPOCH":10642,"BSTAR":-0.00010530396,"MEAN_MOTION_DOT":-3.158e-5,"MEAN_MOTION_DDOT":0}]
